NORAD_CAT_ID,OBJECT_NAME,OBJECT_TYPE,EPOCH,MEAN_MOTION,ECCENTRICITY,INCLINATION,RA_OF_ASC_NODE,ARG_OF_PERICENTER,MEAN_ANOMALY,BSTAR,MEAN_MOTION_DOT,MEAN_MOTION_DDOT,TLE_LINE0,TLE_LINE1,TLE_LINE2,SEMIMAJOR_AXIS,PERIOD,APOGEE,PERIGEE,DECAYED
53711.0,STARLINK-4627,PAYLOAD,2023-09-30 05:03:24,15.08840464,0.0001556,53.2166,290.9271,102.999,257.1176,0.00016791,2.385e-05,0.0,0 STARLINK-4627,1 53711U 22107M   23273.21069653  .00002385  00000-0  16791-3 0  9993,2 53711  53.2166 290.9271 0001556 102.9990 257.1176 15.08840464 59899,6917.879,95.438,540.82,538.668,0.0
53711.0,STARLINK-4627,PAYLOAD,2023-09-30 08:14:10,15.08843992,0.0001519,53.2169,290.3344,96.0337,264.0828,0.00019943,2.888e-05,0.0,0 STARLINK-4627,1 53711U 22107M   23273.34317492  .00002888  00000-0  19943-3 0  9994,2 53711  53.2169 290.3344 0001519  96.0337 264.0828 15.08843992 59478,6917.868,95.437,540.784,538.682,0.0
53711.0,STARLINK-4627,PAYLOAD,2023-10-01 00:08:02,15.08845558,0.0001585,53.217,287.3622,96.5818,263.5355,-5.5433e-05,-1.17e-05,0.0,0 STARLINK-4627,1 53711U 22107M   23274.00558158 -.00001170  00000-0 -55433-4 0  9994,2 53711  53.2170 287.3622 0001585  96.5818 263.5355 15.08845558 59577,6917.863,95.437,540.825,538.632,0.0
53711.0,STARLINK-4627,PAYLOAD,2023-10-01 08:04:58,15.08836873,0.0001539,53.2169,285.8744,94.9414,265.1754,1.686e-05,-2e-07,0.0,0 STARLINK-4627,1 53711U 22107M   23274.33678434 -.00000020  00000-0  16860-4 0  9993,2 53711  53.2169 285.8744 0001539  94.9414 265.1754 15.08836873 60063,6917.89,95.438,540.82,538.69,0.0
53711.0,STARLINK-4627,PAYLOAD,2023-10-01 17:37:17,15.08835134,0.0001528,53.2169,284.0907,96.6359,263.4807,6.3991e-06,-1.86e-06,0.0,0 STARLINK-4627,1 53711U 22107M   23274.73422621 -.00000186  00000-0  63991-5 0  9993,2 53711  53.2169 284.0907 0001528  96.6359 263.4807 15.08835134 59685,6917.895,95.438,540.817,538.703,0.0
53711.0,STARLINK-4627,PAYLOAD,2023-10-02 17:28:04,15.08835008,0.0001568,53.2169,279.6293,96.2584,263.8587,0.00010777,1.427e-05,0.0,0 STARLINK-4627,1 53711U 22107M   23275.72782546  .00001427  00000-0  10777-3 0  9998,2 53711  53.2169 279.6293 0001568  96.2584 263.8587 15.08835008 60279,6917.896,95.438,540.845,538.676,0.0
53711.0,STARLINK-4627,PAYLOAD,2023-10-03 04:35:45,15.08838013,0.0001546,53.2171,277.5476,93.9729,266.144,0.00010152,1.328e-05,0.0,0 STARLINK-4627,1 53711U 22107M   23276.19150447  .00001328  00000-0  10152-3 0  9996,2 53711  53.2171 277.5476 0001546  93.9729 266.1440 15.08838013 59904,6917.886,95.438,540.821,538.682,0.0
53711.0,STARLINK-4627,PAYLOAD,2023-10-03 07:46:32,15.08838987,0.0001536,53.2175,276.9529,93.6579,266.4589,0.00014119,1.96e-05,0.0,0 STARLINK-4627,1 53711U 22107M   23276.32398329  .00001960  00000-0  14119-3 0  9993,2 53711  53.2175 276.9529 0001536  93.6579 266.4589 15.08838987 60368,6917.883,95.438,540.811,538.686,0.0
53711.0,STARLINK-4627,PAYLOAD,2023-10-04 01:15:47,15.08826346,0.0001212,53.2175,273.6779,91.2416,268.8715,0.00017532,2.502e-05,0.0,0 STARLINK-4627,1 53711U 22107M   23277.05263136  .00002502  00000-0  17532-3 0  9996,2 53711  53.2175 273.6779 0001212  91.2416 268.8715 15.08826346 60031,6917.922,95.438,540.626,538.949,0.0
53711.0,STARLINK-4627,PAYLOAD,2023-10-04 09:12:42,15.08848733,0.0002378,53.2178,272.1905,104.4608,255.6648,-5.1897e-05,-1.114e-05,0.0,0 STARLINK-4627,1 53711U 22107M   23277.38382504 -.00001114  00000-0 -51897-4 0  9996,2 53711  53.2178 272.1905 0002378 104.4608 255.6648 15.08848733 60081,6917.854,95.437,541.364,538.074,0.0
53711.0,STARLINK-4627,PAYLOAD,2023-10-04 17:09:38,15.08841725,0.0001687,53.2171,270.7079,89.6289,270.4896,6.6541e-05,7.71e-06,0.0,0 STARLINK-4627,1 53711U 22107M   23277.71502689  .00000771  00000-0  66541-4 0  9999,2 53711  53.2171 270.7079 0001687  89.6289 270.4896 15.08841725 60579,6917.875,95.437,540.907,538.573,0.0
53711.0,STARLINK-4627,PAYLOAD,2023-10-04 23:31:10,15.0884018,0.0001407,53.2175,269.5174,97.0915,263.0237,7.1061e-05,8.43e-06,0.0,0 STARLINK-4627,1 53711U 22107M   23277.97998630  .00000843  00000-0  71061-4 0  9995,2 53711  53.2175 269.5174 0001407  97.0915 263.0237 15.08840180 60171,6917.88,95.438,540.718,538.771,0.0
53711.0,STARLINK-4627,PAYLOAD,2023-10-05 09:03:28,15.08854139,0.0001489,53.2162,267.7313,100.6694,259.4466,0.00013797,1.909e-05,0.0,0 STARLINK-4627,1 53711U 22107M   23278.37741517  .00001909  00000-0  13797-3 0  9995,2 53711  53.2162 267.7313 0001489 100.6694 259.4466 15.08854139 60236,6917.837,95.437,540.732,538.672,0.0
53711.0,STARLINK-4627,PAYLOAD,2023-10-06 02:32:44,15.08839644,0.0001489,53.2168,264.464,92.1063,268.01,3.1072e-05,2.07e-06,0.0,0 STARLINK-4627,1 53711U 22107M   23279.10606720  .00000207  00000-0  31072-4 0  9990,2 53711  53.2168 264.4640 0001489  92.1063 268.0100 15.08839644 60341,6917.881,95.438,540.777,538.716,0.0
53711.0,STARLINK-4627,PAYLOAD,2023-10-06 08:54:16,15.08846281,0.0001658,53.2175,263.2702,104.9022,255.2154,9.3877e-05,1.207e-05,0.0,0 STARLINK-4627,1 53711U 22107M   23279.37102109  .00001207  00000-0  93877-4 0  9993,2 53711  53.2175 263.2702 0001658 104.9022 255.2154 15.08846281 60386,6917.861,95.437,540.873,538.579,0.0
53711.0,STARLINK-4627,PAYLOAD,2023-10-07 08:45:03,15.08844246,0.0001503,53.2184,258.8106,97.1216,262.9947,-1.4857e-05,-5.24e-06,0.0,0 STARLINK-4627,1 53711U 22107M   23280.36462537 -.00000524  00000-0 -14857-4 0  9992,2 53711  53.2184 258.8106 0001503  97.1216 262.9947 15.08844246 60532,6917.867,95.437,540.772,538.693,0.0
53711.0,STARLINK-4627,PAYLOAD,2023-10-07 15:06:36,15.08841116,0.0001524,53.2185,257.6209,97.5415,262.575,-4.4405e-05,-9.95e-06,0.0,0 STARLINK-4627,1 53711U 22107M   23280.62958808 -.00000995  00000-0 -44405-4 0  9996,2 53711  53.2185 257.6209 0001524  97.5415 262.5750 15.08841116 61017,6917.877,95.437,540.796,538.688,0.0
53711.0,STARLINK-4627,PAYLOAD,2023-10-08 07:00:27,15.08850183,0.0001446,53.2186,254.6474,103.7874,256.3279,0.00012584,1.716e-05,0.0,0 STARLINK-4627,1 53711U 22107M   23281.29198136  .00001716  00000-0  12584-3 0  9992,2 53711  53.2186 254.6474 0001446 103.7874 256.3279 15.08850183 61113,6917.849,95.437,540.715,538.714,0.0
53711.0,STARLINK-4627,PAYLOAD,2023-10-08 14:57:22,15.08848435,0.0001422,53.2175,253.1623,86.0601,274.0554,0.00011415,1.53e-05,0.0,0 STARLINK-4627,1 53711U 22107M   23281.62318195  .00001530  00000-0  11415-3 0  9994,2 53711  53.2175 253.1623 0001422  86.0601 274.0554 15.08848435 60722,6917.855,95.437,540.703,538.736,0.0
53711.0,STARLINK-4627,PAYLOAD,2023-10-09 02:05:05,15.08838906,0.0001611,53.2175,251.0805,92.2628,267.8548,1.6734e-05,-2.2e-07,0.0,0 STARLINK-4627,1 53711U 22107M   23282.08686825 -.00000022  00000-0  16734-4 0  9999,2 53711  53.2175 251.0805 0001611  92.2628 267.8548 15.08838906 60791,6917.884,95.438,540.863,538.634,0.0
53711.0,STARLINK-4627,PAYLOAD,2023-10-09 06:51:14,15.0884556,0.0001458,53.2185,250.1903,90.2453,269.8706,0.00014196,1.972e-05,0.0,0 STARLINK-4627,1 53711U 22107M   23282.28558533  .00001972  00000-0  14196-3 0  9998,2 53711  53.2185 250.1903 0001458  90.2453 269.8706 15.08845560 61269,6917.863,95.437,540.737,538.72,0.0
53711.0,STARLINK-4627,PAYLOAD,2023-10-09 14:48:10,15.08836159,0.0001453,53.2174,248.7009,91.3276,268.7883,-5.5077e-06,-3.76e-06,0.0,0 STARLINK-4627,1 53711U 22107M   23282.61678926 -.00000376  00000-0 -55077-5 0  9998,2 53711  53.2174 248.7009 0001453  91.3276 268.7883 15.08836159 61311,6917.892,95.438,540.762,538.752,0.0
53711.0,STARLINK-4627,PAYLOAD,2023-10-10 08:17:24,15.08849986,0.0001504,53.2167,245.4294,100.113,260.0032,0.00010643,1.407e-05,0.0,0 STARLINK-4627,1 53711U 22107M   23283.34542190  .00001407  00000-0  10643-3 0  9994,2 53711  53.2167 245.4294 0001504 100.1130 260.0032 15.08849986 60983,6917.85,95.437,540.755,538.674,0.0
53711.0,STARLINK-4627,PAYLOAD,2023-10-11 03:22:03,15.08824424,0.0001732,53.2169,241.8586,95.4042,264.7148,0.0002136,3.112e-05,0.0,0 STARLINK-4627,1 53711U 22107M   23284.14031971  .00003112  00000-0  21360-3 0  9996,2 53711  53.2169 241.8586 0001732  95.4042 264.7148 15.08824424 61104,6917.928,95.439,540.991,538.595,0.0
53711.0,STARLINK-4627,PAYLOAD,2023-10-11 06:32:49,15.08836679,0.0001522,53.2158,241.2661,102.2546,257.8616,-3.5853e-05,-8.58e-06,0.0,0 STARLINK-4627,1 53711U 22107M   23284.27279410 -.00000858  00000-0 -35853-4 0  9991,2 53711  53.2158 241.2661 0001522 102.2546 257.8616 15.08836679 61123,6917.891,95.438,540.808,538.703,0.0
53711.0,STARLINK-4627,PAYLOAD,2023-10-12 06:23:35,15.08853112,0.0001358,53.2154,236.8076,100.7256,259.3889,0.00030464,4.565e-05,0.0,0 STARLINK-4627,1 53711U 22107M   23285.26638849  .00004565  00000-0  30464-3 0  9995,2 53711  53.2154 236.8076 0001358 100.7256 259.3889 15.08853112 61712,6917.84,95.437,540.645,538.766,0.0
53711.0,STARLINK-4627,PAYLOAD,2023-10-12 14:20:32,15.0883621,0.0002,53.2177,235.3193,93.6488,266.4733,0.00011506,1.543e-05,0.0,0 STARLINK-4627,1 53711U 22107M   23285.59759884  .00001543  00000-0  11506-3 0  9993,2 53711  53.2177 235.3193 0002000  93.6488 266.4733 15.08836210 61327,6917.892,95.438,541.141,538.373,0.0
53711.0,STARLINK-4627,PAYLOAD,2023-10-13 14:11:19,15.08849212,0.0001597,53.2175,230.8593,92.6959,267.4216,0.0002677,3.976e-05,0.0,0 STARLINK-4627,1 53711U 22107M   23286.59119489  .00003976  00000-0  26770-3 0  9996,2 53711  53.2175 230.8593 0001597  92.6959 267.4216 15.08849212 61919,6917.852,95.437,540.822,538.612,0.0
53711.0,STARLINK-4627,PAYLOAD,2023-10-14 02:54:23,15.08860048,0.0001638,53.2179,228.4803,98.3086,261.8091,0.00048011,7.365e-05,0.0,0 STARLINK-4627,1 53711U 22107M   23287.12110947  .00007365  00000-0  48011-3 0  9994,2 53711  53.2179 228.4803 0001638  98.3086 261.8091 15.08860048 61997,6917.819,95.436,540.817,538.551,0.0
53711.0,STARLINK-4627,PAYLOAD,2023-10-14 20:23:39,15.08838277,0.0001721,53.2178,225.2088,92.4421,267.6768,5.3432e-05,5.62e-06,0.0,0 STARLINK-4627,1 53711U 22107M   23287.84975767  .00000562  00000-0  53432-4 0  9998,2 53711  53.2178 225.2088 0001721  92.4421 267.6768 15.08838277 61665,6917.886,95.438,540.941,538.56,0.0
